ONEWEB-0012             
1 44057U 19010A   23275.83618492 -.00000030  00000+0 -11302-3 0  9995
2 44057  87.9024  65.5133 0002696  84.5016 275.6423 13.16596550221546
ONEWEB-0010             
1 44058U 19010B   23274.87357363  .00000146  00000+0  34859-3 0  9994
2 44058  87.9016  65.6894 0001989  73.3607 286.7742 13.16593168221436
ONEWEB-0008             
1 44059U 19010C   23274.89889309 -.00000051  00000+0 -16754-3 0  9998
2 44059  87.9025  65.6787 0001607 102.2171 257.9140 13.16593765221551
ONEWEB-0007             
1 44060U 19010D   23274.75686756 -.00000052  00000+0 -17199-3 0  9991
2 44060  87.8945  96.1869 0002173  85.1241 275.0137 13.15545929221284
ONEWEB-0006             
1 44061U 19010E   23274.89631829  .00000075  00000+0  16493-3 0  9997
2 44061  87.8934  96.1602 0001951  79.2462 280.8888 13.15549068221353
ONEWEB-0011             
1 44062U 19010F   23274.88379065  .00000155  00000+0  37857-3 0  9994
2 44062  87.8937  96.1643 0001743  92.9619 267.1710 13.15551221221342
ONEWEB-0013             
1 45131U 20008A   23275.68172353  .00000353  00000+0  98816-3 0  9993
2 45131  87.9126 251.2291 0002722 100.4824 259.6610 13.09389715177463
ONEWEB-0017             
1 45132U 20008B   23275.85779245  .00000150  00000+0  39480-3 0  9993
2 45132  87.8869 232.5339 0001999  73.4280 286.7067 13.10379079179285
